[{"OBJECT_NAME":"SCS-01 M","OBJECT_ID":"2025-100M","EPOCH":"2026-03-09T23:50:15.541152","MEAN_MOTION":15.31880861,"ECCENTRICITY":0.00078021,"INCLINATION":97.3725,"RA_OF_ASC_NODE":145.6908,"ARG_OF_PERICENTER":292.3826,"MEAN_ANOMALY":67.6588,"EPHEMERIS_TYPE":0,"CLASSIFICATION_TYPE":"U","NORAD_CAT_ID":63993,"ELEMENT_SET_NO":999,"REV_AT_EPOCH":4565,"BSTAR":0.0012010051,"MEAN_MOTION_DOT":0.00037061,"MEAN_MOTION_DDOT":0},{"OBJECT_NAME":"STARLINK-34532","OBJECT_ID":"2025-137P","EPOCH":"2026-03-09T04:17:42.035136","MEAN_MOTION":15.30169384,"ECCENTRICITY":9.777e-5,"INCLINATION":53.161,"RA_OF_ASC_NODE":347.7638,"ARG_OF_PERICENTER":85.525,"MEAN_ANOMALY":274.5862,"EPHEMERIS_TYPE":0,"CLASSIFICATION_TYPE":"U","NORAD_CAT_ID":64607,"ELEMENT_SET_NO":999,"REV_AT_EPOCH":4051,"BSTAR":0.00093628197,"MEAN_MOTION_DOT":0.00027447,"MEAN_MOTION_DDOT":0}]
